STARLINK-1895
1 17175C 20088BF  21326.12884098  .00000586  00000-0  39241-4 0  3262
2 17175  53.0532 123.1505 0001957  78.7566 185.1317 15.06399896    15
